ASTROCAST-0404          
1 55112U 23001DH  26068.80836714  .00008870  00000+0  34436-3 0  9994
2 55112  97.5646 161.5422 0006847   1.1317 358.9936 15.26309833129366
STARLINK-32225          
1 62036U 24216E   26068.88541750  .00031777  00000+0  11593-2 0  9997
2 62036  43.0003 255.3849 0001627 272.0542  88.0123 15.27580712 73979
